     3.02           N: GNSS NAV DATA    G: GPS              RINEX VERSION / TYPE
TPP 4.3.2                               20231127 235930 UTC PGM / RUN BY / DATE 
                                                            COMMENT             
                                                            COMMENT             
                                                            COMMENT             
GPSA    .2980E-07   .7451E-08  -.1192E-06   .1192E-06       IONOSPHERIC CORR    
GPSB    .1495E+06  -.1802E+06   .0000E+00   .1311E+06       IONOSPHERIC CORR    
GPUT   .2793967724E-08  .976996262E-14 405504 2290          TIME SYSTEM CORR    
    18                                                      LEAP SECONDS        
                                                            END OF HEADER       
G01 2023 11 21 16 00 00  .163252465427E-03  .227373675443E-12  .000000000000E+00
      .420000000000E+02  .287812500000E+02  .366158109098E-08  .958893036875E+00
      .147148966789E-05  .129631230375E-01  .943988561630E-05  .515402923965E+04
      .230400000000E+06 -.175088644028E-06 -.859576523258E+00  .391155481339E-07
      .990512305396E+00  .215500000000E+03  .100131995210E+01 -.788568561332E-08
     -.303584074067E-10  .100000000000E+01  .228900000000E+04  .000000000000E+00
      .400000000000E+01  .630000000000E+02  .512227416039E-08  .420000000000E+02
      .223218000000E+06  .000000000000E+00  .000000000000E+00  .000000000000E+00
G02 2023 11 28 00 00 00 -.523164402694E-03  .511590769747E-11  .000000000000E+00
      .820000000000E+02 -.954375000000E+02  .447697219815E-08  .169963624033E+01
     -.543892383575E-05  .162705814000E-01 -.346451997757E-06  .515373144722E+04
      .172800000000E+06  .270083546638E-06 -.108694132155E+01 -.152736902237E-06
      .967466531184E+00  .384937500000E+03 -.130576854017E+01 -.825820113008E-08
     -.401802450971E-09  .100000000000E+01  .229000000000E+04  .000000000000E+00
      .200000000000E+01  .000000000000E+00 -.176951289177E-07  .820000000000E+02
      .171552000000E+06  .000000000000E+00  .000000000000E+00  .000000000000E+00
G03 2023 11 27 10 00 00  .139633193612E-04  .262616595137E-10  .000000000000E+00
      .870000000000E+02 -.878437500000E+02  .376122809882E-08 -.313820733681E+01
     -.455975532532E-05  .507736264262E-02  .112559646368E-04  .515356299400E+04
      .122400000000E+06  .465661287308E-07  .448757201339E-01 -.130385160446E-06
      .982100563013E+00  .171781250000E+03  .111291085604E+01 -.740102256801E-08
      .335013954676E-09  .100000000000E+01  .229000000000E+04  .000000000000E+00
      .280000000000E+01  .000000000000E+00  .186264514923E-08  .870000000000E+02
      .115218000000E+06  .000000000000E+00  .000000000000E+00  .000000000000E+00
G04 2023 11 27 12 14 40  .224250834435E-03  .102318153949E-10  .000000000000E+00
      .101000000000E+03  .155000000000E+02  .490341853278E-08  .106075088497E+01
      .882893800735E-06  .271200307179E-02  .616908073425E-05  .515359588623E+04
      .130480000000E+06  .521540641785E-07  .112445386339E+01 -.558793544769E-07
      .963385238439E+00  .259281250000E+03 -.304957135694E+01 -.807712215884E-08
      .388944772540E-09  .100000000000E+01  .229000000000E+04  .000000000000E+00
      .200000000000E+01  .000000000000E+00 -.465661287308E-08  .357000000000E+03
      .123318000000E+06  .000000000000E+00  .000000000000E+00  .000000000000E+00
G05 2023 11 28 00 00 00 -.152025371790E-03 -.147792889038E-11  .000000000000E+00
      .830000000000E+02 -.102218750000E+03  .398802326003E-08  .154431670788E+01
     -.545382499695E-05  .586117513012E-02  .109169632196E-04  .515376913643E+04
      .172800000000E+06 -.372529029846E-07 -.444214489602E-02 -.106170773506E-06
      .969121062274E+00  .177968750000E+03  .123884661971E+01 -.767531970787E-08
      .112504686272E-09  .100000000000E+01  .229000000000E+04  .000000000000E+00
      .200000000000E+01  .000000000000E+00 -.111758708954E-07  .830000000000E+02
      .165618000000E+06  .000000000000E+00  .000000000000E+00  .000000000000E+00
G06 2023 11 27 20 00 00  .494289211929E-03 -.106865627458E-10  .000000000000E+00
      .390000000000E+02 -.115375000000E+03  .393230665350E-08 -.282671236828E+01
     -.596046447754E-05  .304004293866E-02  .245124101639E-05  .515378473282E+04
      .158400000000E+06 -.372529029846E-08 -.992477355477E+00  .316649675369E-07
      .989549848666E+00  .349468750000E+03 -.829629087759E+00 -.796997483859E-08
     -.332156692802E-09  .100000000000E+01  .229000000000E+04  .000000000000E+00
      .200000000000E+01  .000000000000E+00  .372529029846E-08  .390000000000E+02
      .151218000000E+06  .000000000000E+00  .000000000000E+00  .000000000000E+00
G07 2023 11 27 14 00 00  .258767977357E-05 -.977706804406E-11  .000000000000E+00
      .240000000000E+02 -.153437500000E+02  .519843082122E-08 -.601655885245E+00
     -.707805156708E-06  .176697517745E-01  .694952905178E-05  .515368914032E+04
      .136800000000E+06 -.707805156708E-07  .213875785859E+01  .262632966042E-06
      .950031374037E+00  .240375000000E+03 -.216514556822E+01 -.843856578585E-08
     -.670742224820E-09  .100000000000E+01  .229000000000E+04  .000000000000E+00
      .200000000000E+01  .000000000000E+00 -.111758708954E-07  .240000000000E+02
      .129618000000E+06  .000000000000E+00  .000000000000E+00  .000000000000E+00
G08 2023 11 27 23 59 44 -.154183711857E-03 -.181898940355E-11  .000000000000E+00
      .300000000000E+01  .136031250000E+03  .479198531971E-08  .117895098507E+01
      .724941492081E-05  .896535359789E-02  .248476862907E-05  .515379264641E+04
      .172784000000E+06  .447034835815E-07 -.208259376956E+01  .763684511185E-07
      .955882851786E+00  .325156250000E+03  .280490150466E+00 -.852285501112E-08
      .128933942045E-09  .100000000000E+01  .229000000000E+04  .000000000000E+00
      .200000000000E+01  .000000000000E+00  .512227416039E-08  .300000000000E+01
      .168498000000E+06  .000000000000E+00  .000000000000E+00  .000000000000E+00
G09 2023 11 27 14 00 00  .956468284130E-05  .114823706099E-10  .000000000000E+00
      .460000000000E+02  .162500000000E+02  .501270879944E-08  .273659453726E+01
      .944361090660E-06  .296663818881E-02  .663846731186E-05  .515375955200E+04
      .136800000000E+06  .137835741043E-06  .106625934939E+01  .186264514923E-08
      .956866800246E+00  .248812500000E+03  .198671397820E+01 -.807033616189E-08
      .547879964257E-09  .100000000000E+01  .229000000000E+04  .000000000000E+00
      .200000000000E+01  .000000000000E+00  .139698386192E-08  .460000000000E+02
      .129618000000E+06  .000000000000E+00  .000000000000E+00  .000000000000E+00
G10 2023 11 28 00 00 00 -.631050206721E-04 -.159161572810E-11  .000000000000E+00
      .480000000000E+02 -.115781250000E+03  .351836083957E-08 -.303545412726E+01
     -.598467886448E-05  .913470122032E-02  .119097530842E-04  .515369574165E+04
      .172800000000E+06 -.223517417908E-07  .419117925144E-01 -.782310962677E-07
      .981819710538E+00  .158968750000E+03 -.242181120245E+01 -.726851704862E-08
      .274297139863E-09  .100000000000E+01  .229000000000E+04  .000000000000E+00
      .200000000000E+01  .000000000000E+00  .232830643654E-08  .480000000000E+02
      .165618000000E+06  .000000000000E+00  .000000000000E+00  .000000000000E+00
G11 2023 11 27 22 00 00 -.478167086840E-03 -.158024704433E-10  .000000000000E+00
      .150000000000E+02 -.117875000000E+03  .452125975719E-08 -.582309001382E+00
     -.622123479843E-05  .128889770713E-02  .269338488579E-05  .515362895203E+04
      .165600000000E+06  .167638063431E-07 -.955396953787E+00  .167638063431E-07
      .965952728426E+00  .331687500000E+03 -.255483906278E+01 -.827534470132E-08
     -.356443418728E-09  .100000000000E+01  .229000000000E+04  .000000000000E+00
      .200000000000E+01  .000000000000E+00 -.838190317154E-08  .783000000000E+03
      .158418000000E+06  .000000000000E+00  .000000000000E+00  .000000000000E+00
G12 2023 11 27 21 59 44 -.451590865850E-03 -.409272615798E-11  .000000000000E+00
      .390000000000E+02  .112562500000E+03  .410195657724E-08  .292346640387E+01
      .575371086597E-05  .875665934291E-02  .108797103167E-04  .515376264000E+04
      .165584000000E+06  .134110450745E-06 -.302981376029E+01 -.160187482834E-06
      .964317004611E+00  .167750000000E+03  .139714529120E+01 -.755745765559E-08
     -.223580741607E-09  .100000000000E+01  .229000000000E+04  .000000000000E+00
      .200000000000E+01  .000000000000E+00 -.125728547573E-07  .390000000000E+02
      .158418000000E+06  .000000000000E+00  .000000000000E+00  .000000000000E+00
G13 2023 11 28 00 00 00  .599885825068E-03  .397903932026E-11  .000000000000E+00
      .420000000000E+02  .176250000000E+02  .458054794106E-08  .870166976370E+00
      .875443220139E-06  .771109736525E-02  .632181763649E-05  .515365427589E+04
      .172800000000E+06 -.912696123123E-07  .122916693990E+01  .428408384323E-07
      .970114288560E+00  .263281250000E+03  .953470802698E+00 -.802461997192E-08
      .374301305437E-09  .100000000000E+01  .229000000000E+04  .000000000000E+00
      .200000000000E+01  .000000000000E+00 -.111758708954E-07  .420000000000E+02
      .165618000000E+06  .000000000000E+00  .000000000000E+00  .000000000000E+00
